{"type": "FeatureCollection", "features": [ {"type": "Feature", "properties": {"norad_id": 41556, "name": "ZIYUAN 3-02 (ZY 3-02)", "group": "resource", "lat": 0.802701824491161, "lon": -108.4977853409374, "alt_km": 498.32195486501314, "timestamp": "2025-12-23T09:49:06.733727+00:00", "meta": {"OBJECT_NAME": "ZIYUAN 3-02 (ZY 3-02)", "OBJECT_ID": "2016-033A", "EPOCH": "2025-12-22T23:33:39.585888", "MEAN_MOTION": 15.2119262, "ECCENTRICITY": 0.0011252, "INCLINATION": 97.403, "RA_OF_ASC_NODE": 70.9777, "ARG_OF_PERICENTER": 207.8039, "MEAN_ANOMALY": 152.2597, "EPHEMERIS_TYPE": 0, "CLASSIFICATION_TYPE": "U", "NORAD_CAT_ID": 41556, "ELEMENT_SET_NO": 999, "REV_AT_EPOCH": 53119, "BSTAR": 0.00035462201, "MEAN_MOTION_DOT": 7.854e-05, "MEAN_MOTION_DDOT": 0}, "tle": {"line1": "1 41556U 16033A   25356.98170817  .00007854  00000+0  35462-3 0  9992", "line2": "2 41556  97.4030  70.9777 0011252 207.8039 152.2597 15.21192620531192"}}, "geometry": {"type": "Point", "coordinates": [-108.4977853409374, 0.802701824491161]}}, {"type": "Feature", "properties": {"norad_id": 41599, "name": "CARTOSAT-2C", "group": "resource", "lat": 43.36356188624728, "lon": 47.42492768256694, "alt_km": 497.3718340607593, "timestamp": "2025-12-23T09:49:06.733737+00:00", "meta": {"OBJECT_NAME": "CARTOSAT-2C", "OBJECT_ID": "2016-040A", "EPOCH": "2025-12-21T18:06:24.689088", "MEAN_MOTION": 15.19188008, "ECCENTRICITY": 0.00110207, "INCLINATION": 97.4756, "RA_OF_ASC_NODE": 52.9115, "ARG_OF_PERICENTER": 34.9019, "MEAN_ANOMALY": 325.2936, "EPHEMERIS_TYPE": 0, "CLASSIFICATION_TYPE": "U", "NORAD_CAT_ID": 41599, "ELEMENT_SET_NO": 999, "REV_AT_EPOCH": 52677, "BSTAR": 0.00012803175, "MEAN_MOTION_DOT": 2.628e-05, "MEAN_MOTION_DDOT": 0}, "tle": {"line1": "1 41599U 16040A   25355.75445242  .00002628  00000+0  12803-3 0  9996", "line2": "2 41599  97.4756  52.9115 0011020  34.9019 325.2936 15.19188008526779"}}, "geometry": {"type": "Point", "coordinates": [47.42492768256694, 43.36356188624728]}}, {"type": "Feature", "properties": {"norad_id": 41601, "name": "SKYSAT-C1", "group": "resource", "lat": -73.95420968195693, "lon": -171.39278120822192, "alt_km": 474.7227553586217, "timestamp": "2025-12-23T09:49:06.733747+00:00", "meta": {"OBJECT_NAME": "SKYSAT-C1", "OBJECT_ID": "2016-040C", "EPOCH": "2025-12-22T20:10:21.096480", "MEAN_MOTION": 15.32762475, "ECCENTRICITY": 0.00011823, "INCLINATION": 96.9803, "RA_OF_ASC_NODE": 33.2846, "ARG_OF_PERICENTER": 335.9876, "MEAN_ANOMALY": 24.1312, "EPHEMERIS_TYPE": 0, "CLASSIFICATION_TYPE": "U", "NORAD_CAT_ID": 41601, "ELEMENT_SET_NO": 999, "REV_AT_EPOCH": 53082, "BSTAR": 0.00032390856, "MEAN_MOTION_DOT": 0.0001018, "MEAN_MOTION_DDOT": 0}, "tle": {"line1": "1 41601U 16040C   25356.84052195  .00010180  00000+0  32391-3 0  9998", "line2": "2 41601  96.9803  33.2846 0001182 335.9876  24.1312 15.32762475530821"}}, "geometry": {"type": "Point", "coordinates": [-171.39278120822192, -73.95420968195693]}}, {"type": "Feature", "properties": {"norad_id": 41603, "name": "LAPAN-A3", "group": "resource", "lat": -2.4379079150883594, "lon": -5.116702035151088, "alt_km": 472.05316233137546, "timestamp": "2025-12-23T09:49:06.733758+00:00", "meta": {"OBJECT_NAME": "LAPAN-A3", "OBJECT_ID": "2016-040E", "EPOCH": "2025-12-22T22:51:12.309984", "MEAN_MOTION": 15.31630713, "ECCENTRICITY": 0.0008758, "INCLINATION": 97.1429, "RA_OF_ASC_NODE": 354.137, "ARG_OF_PERICENTER": 291.8674, "MEAN_ANOMALY": 68.1636, "EPHEMERIS_TYPE": 0, "CLASSIFICATION_TYPE": "U", "NORAD_CAT_ID": 41603, "ELEMENT_SET_NO": 999, "REV_AT_EPOCH": 52782, "BSTAR": 0.00015278552, "MEAN_MOTION_DOT": 4.597e-05, "MEAN_MOTION_DDOT": 0}, "tle": {"line1": "1 41603U 16040E   25356.95222581  .00004597  00000+0  15279-3 0  9991", "line2": "2 41603  97.1429 354.1370 0008758 291.8674  68.1636 15.31630713527820"}}, "geometry": {"type": "Point", "coordinates": [-5.116702035151088, -2.4379079150883594]}}, {"type": "Feature", "properties": {"norad_id": 41604, "name": "BIROS", "group": "resource", "lat": -31.821391328270593, "lon": 33.718121550774555, "alt_km": 300.1702947928543, "timestamp": "2025-12-23T09:49:06.733768+00:00", "meta": {"OBJECT_NAME": "BIROS", "OBJECT_ID": "2016-040F", "EPOCH": "2025-12-21T20:16:27.693408", "MEAN_MOTION": 15.93143853, "ECCENTRICITY": 0.00037129, "INCLINATION": 97.0682, "RA_OF_ASC_NODE": 27.6655, "ARG_OF_PERICENTER": 133.3571, "MEAN_ANOMALY": 226.8015, "EPHEMERIS_TYPE": 0, "CLASSIFICATION_TYPE": "U", "NORAD_CAT_ID": 41604, "ELEMENT_SET_NO": 999, "REV_AT_EPOCH": 53017, "BSTAR": 0.00065293224, "MEAN_MOTION_DOT": 0.00227507, "MEAN_MOTION_DDOT": 2.144608e-05}, "tle": {"line1": "1 41604U 16040F   25355.84476497  .00227507  21446-4  65293-3 0  9997", "line2": "2 41604  97.0682  27.6655 0003712 133.3571 226.8015 15.93143853530178"}}, "geometry": {"type": "Point", "coordinates": [33.718121550774555, -31.821391328270593]}}, {"type": "Feature", "properties": {"norad_id": 41727, "name": "GAOFEN-3", "group": "resource", "lat": -51.42372381359255, "lon": 13.512318912649693, "alt_km": 758.3552857926115, "timestamp": "2025-12-23T09:49:06.733779+00:00", "meta": {"OBJECT_NAME": "GAOFEN-3", "OBJECT_ID": "2016-049A", "EPOCH": "2025-12-23T00:04:11.154432", "MEAN_MOTION": 14.42215404, "ECCENTRICITY": 0.00011396, "INCLINATION": 98.4031, "RA_OF_ASC_NODE": 2.4322, "ARG_OF_PERICENTER": 56.734, "MEAN_ANOMALY": 303.3958, "EPHEMERIS_TYPE": 0, "CLASSIFICATION_TYPE": "U", "NORAD_CAT_ID": 41727, "ELEMENT_SET_NO": 999, "REV_AT_EPOCH": 49325, "BSTAR": -2.8840743e-05, "MEAN_MOTION_DOT": -1.38e-06, "MEAN_MOTION_DDOT": 0}, "tle": {"line1": "1 41727U 16049A   25357.00290688 -.00000138  00000+0 -28841-4 0  9996", "line2": "2 41727  98.4031   2.4322 0001139  56.7340 303.3958 14.42215404493251"}}, "geometry": {"type": "Point", "coordinates": [13.512318912649693, -51.42372381359255]}}, {"type": "Feature", "properties": {"norad_id": 41771, "name": "SKYSAT-C4", "group": "resource", "lat": -23.173566916838347, "lon": -160.90819462592356, "alt_km": 443.90614851495593, "timestamp": "2025-12-23T09:49:06.733789+00:00", "meta": {"OBJECT_NAME": "SKYSAT-C4", "OBJECT_ID": "2016-058B", "EPOCH": "2025-12-22T12:42:01.643616", "MEAN_MOTION": 15.425136, "ECCENTRICITY": 0.00023222, "INCLINATION": 96.9359, "RA_OF_ASC_NODE": 21.2414, "ARG_OF_PERICENTER": 126.8022, "MEAN_ANOMALY": 233.344, "EPHEMERIS_TYPE": 0, "CLASSIFICATION_TYPE": "U", "NORAD_CAT_ID": 41771, "ELEMENT_SET_NO": 999, "REV_AT_EPOCH": 51818, "BSTAR": 0.00035321412, "MEAN_MOTION_DOT": 0.00015247, "MEAN_MOTION_DDOT": 0}, "tle": {"line1": "1 41771U 16058B   25356.52918569  .00015247  00000+0  35321-3 0  9991", "line2": "2 41771  96.9359  21.2414 0002322 126.8022 233.3440 15.42513600518186"}}, "geometry": {"type": "Point", "coordinates": [-160.90819462592356, -23.173566916838347]}}, {"type": "Feature", "properties": {"norad_id": 41772, "name": "SKYSAT-C5", "group": "resource", "lat": 20.689017575534226, "lon": -136.5973989670168, "alt_km": 463.39504888459123, "timestamp": "2025-12-23T09:49:06.733799+00:00", "meta": {"OBJECT_NAME": "SKYSAT-C5", "OBJECT_ID": "2016-058C", "EPOCH": "2025-12-22T20:36:11.256768", "MEAN_MOTION": 15.3404884, "ECCENTRICITY": 0.00038645, "INCLINATION": 97.0737, "RA_OF_ASC_NODE": 40.1871, "ARG_OF_PERICENTER": 242.4795, "MEAN_ANOMALY": 117.6056, "EPHEMERIS_TYPE": 0, "CLASSIFICATION_TYPE": "U", "NORAD_CAT_ID": 41772, "ELEMENT_SET_NO": 999, "REV_AT_EPOCH": 51671, "BSTAR": 0.00031467605, "MEAN_MOTION_DOT": 0.00010298, "MEAN_MOTION_DDOT": 0}, "tle": {"line1": "1 41772U 16058C   25356.85846362  .00010298  00000+0  31468-3 0  9998", "line2": "2 41772  97.0737  40.1871 0003864 242.4795 117.6056 15.34048840516714"}}, "geometry": {"type": "Point", "coordinates": [-136.5973989670168, 20.689017575534226]}}, {"type": "Feature", "properties": {"norad_id": 41773, "name": "SKYSAT-C2", "group": "resource", "lat": -63.333902966612435, "lon": 35.71822545816767, "alt_km": 459.9120363916936, "timestamp": "2025-12-23T09:49:06.733810+00:00", "meta": {"OBJECT_NAME": "SKYSAT-C2", "OBJECT_ID": "2016-058D", "EPOCH": "2025-12-22T13:47:28.316256", "MEAN_MOTION": 15.37479301, "ECCENTRICITY": 0.00031137, "INCLINATION": 97.0346, "RA_OF_ASC_NODE": 20.6848, "ARG_OF_PERICENTER": 5.7873, "MEAN_ANOMALY": 354.3408, "EPHEMERIS_TYPE": 0, "CLASSIFICATION_TYPE": "U", "NORAD_CAT_ID": 41773, "ELEMENT_SET_NO": 999, "REV_AT_EPOCH": 51787, "BSTAR": 0.00032762855, "MEAN_MOTION_DOT": 0.00011972, "MEAN_MOTION_DDOT": 0}, "tle": {"line1": "1 41773U 16058D   25356.57463329  .00011972  00000+0  32763-3 0  9995", "line2": "2 41773  97.0346  20.6848 0003113   5.7873 354.3408 15.37479301517874"}}, "geometry": {"type": "Point", "coordinates": [35.71822545816767, -63.333902966612435]}}, {"type": "Feature", "properties": {"norad_id": 41774, "name": "SKYSAT-C3", "group": "resource", "lat": 39.818915554301896, "lon": 24.841003536884248, "alt_km": 428.486152431532, "timestamp": "2025-12-23T09:49:06.733820+00:00", "meta": {"OBJECT_NAME": "SKYSAT-C3", "OBJECT_ID": "2016-058E", "EPOCH": "2025-12-22T14:59:20.624064", "MEAN_MOTION": 15.4473117, "ECCENTRICITY": 0.00020595, "INCLINATION": 96.9284, "RA_OF_ASC_NODE": 29.9115, "ARG_OF_PERICENTER": 107.1128, "MEAN_ANOMALY": 253.0348, "EPHEMERIS_TYPE": 0, "CLASSIFICATION_TYPE": "U", "NORAD_CAT_ID": 41774, "ELEMENT_SET_NO": 999, "REV_AT_EPOCH": 51878, "BSTAR": 0.00041402054, "MEAN_MOTION_DOT": 0.00019283, "MEAN_MOTION_DDOT": 0}, "tle": {"line1": "1 41774U 16058E   25356.62454426  .00019283  00000+0  41402-3 0  9993", "line2": "2 41774  96.9284  29.9115 0002059 107.1128 253.0348 15.44731170518783"}}, "geometry": {"type": "Point", "coordinates": [24.841003536884248, 39.818915554301896]}}]}